[{"OBJECT_NAME":"SICH-2-30 (SICH-2-1)","OBJECT_ID":"2022-002AY","EPOCH":"2023-09-08T02:50:59.871264","MEAN_MOTION":15.20416175,"ECCENTRICITY":0.0007569,"INCLINATION":97.4312,"RA_OF_ASC_NODE":315.5666,"ARG_OF_PERICENTER":319.1603,"MEAN_ANOMALY":40.9064,"EPHEMERIS_TYPE":0,"CLASSIFICATION_TYPE":"U","NORAD_CAT_ID":51030,"ELEMENT_SET_NO":999,"REV_AT_EPOCH":9125,"BSTAR":0.00049013,"MEAN_MOTION_DOT":0.00010631,"MEAN_MOTION_DDOT":0},{"OBJECT_NAME":"SANOSAT-1","OBJECT_ID":"2022-002AZ","EPOCH":"2023-09-07T03:21:27.769536","MEAN_MOTION":15.39596783,"ECCENTRICITY":0.000695,"INCLINATION":97.4365,"RA_OF_ASC_NODE":320.9272,"ARG_OF_PERICENTER":284.6917,"MEAN_ANOMALY":75.3558,"EPHEMERIS_TYPE":0,"CLASSIFICATION_TYPE":"U","NORAD_CAT_ID":51031,"ELEMENT_SET_NO":999,"REV_AT_EPOCH":9148,"BSTAR":0.0012859,"MEAN_MOTION_DOT":0.00050857,"MEAN_MOTION_DDOT":0},{"OBJECT_NAME":"FLOCK 4X-17","OBJECT_ID":"2022-002BD","EPOCH":"2023-09-07T10:14:02.210208","MEAN_MOTION":15.30370124,"ECCENTRICITY":0.0004794,"INCLINATION":97.4332,"RA_OF_ASC_NODE":318.9213,"ARG_OF_PERICENTER":314.8109,"MEAN_ANOMALY":45.2741,"EPHEMERIS_TYPE":0,"CLASSIFICATION_TYPE":"U","NORAD_CAT_ID":51035,"ELEMENT_SET_NO":999,"REV_AT_EPOCH":9140,"BSTAR":0.00055413,"MEAN_MOTION_DOT":0.00016222,"MEAN_MOTION_DDOT":0},{"OBJECT_NAME":"LEMUR-2-ROHOVITHSA","OBJECT_ID":"2022-002BE","EPOCH":"2023-09-08T02:52:37.564608","MEAN_MOTION":15.28045905,"ECCENTRICITY":0.0005039,"INCLINATION":97.4326,"RA_OF_ASC_NODE":317.901,"ARG_OF_PERICENTER":322.3993,"MEAN_ANOMALY":37.6893,"EPHEMERIS_TYPE":0,"CLASSIFICATION_TYPE":"U","NORAD_CAT_ID":51036,"ELEMENT_SET_NO":999,"REV_AT_EPOCH":9139,"BSTAR":0.0010777,"MEAN_MOTION_DOT":0.00029499,"MEAN_MOTION_DDOT":0},{"OBJECT_NAME":"FLOCK 4X-10","OBJECT_ID":"2022-002BF","EPOCH":"2023-09-08T02:58:40.370304","MEAN_MOTION":15.30505052,"ECCENTRICITY":0.0006732,"INCLINATION":97.4344,"RA_OF_ASC_NODE":319.7819,"ARG_OF_PERICENTER":306.7887,"MEAN_ANOMALY":53.2735,"EPHEMERIS_TYPE":0,"CLASSIFICATION_TYPE":"U","NORAD_CAT_ID":51037,"ELEMENT_SET_NO":999,"REV_AT_EPOCH":9150,"BSTAR":0.0006403,"MEAN_MOTION_DOT":0.00018847,"MEAN_MOTION_DDOT":0},{"OBJECT_NAME":"MDASAT-1C","OBJECT_ID":"2022-002BG","EPOCH":"2023-09-08T02:38:29.044032","MEAN_MOTION":15.21514947,"ECCENTRICITY":0.0007328,"INCLINATION":97.4363,"RA_OF_ASC_NODE":316.2374,"ARG_OF_PERICENTER":326.6334,"MEAN_ANOMALY":33.4439,"EPHEMERIS_TYPE":0,"CLASSIFICATION_TYPE":"U","NORAD_CAT_ID":51038,"ELEMENT_SET_NO":999,"REV_AT_EPOCH":9127,"BSTAR":0.00054404,"MEAN_MOTION_DOT":0.00012195,"MEAN_MOTION_DDOT":0},{"OBJECT_NAME":"FLOCK 4X-36","OBJECT_ID":"2022-002BH","EPOCH":"2023-09-08T03:07:36.077952","MEAN_MOTION":15.30455313,"ECCENTRICITY":0.0005867,"INCLINATION":97.4333,"RA_OF_ASC_NODE":319.7399,"ARG_OF_PERICENTER":307.5166,"MEAN_ANOMALY":52.5541,"EPHEMERIS_TYPE":0,"CLASSIFICATION_TYPE":"U","NORAD_CAT_ID":51039,"ELEMENT_SET_NO":999,"REV_AT_EPOCH":9151,"BSTAR":0.00064016,"MEAN_MOTION_DOT":0.00018811,"MEAN_MOTION_DDOT":0},{"OBJECT_NAME":"FLOCK 4X-21","OBJECT_ID":"2022-002BJ","EPOCH":"2023-09-07T04:10:12.731808","MEAN_MOTION":15.33420627,"ECCENTRICITY":0.0005968,"INCLINATION":97.4292,"RA_OF_ASC_NODE":318.9709,"ARG_OF_PERICENTER":290.8971,"MEAN_ANOMALY":69.1632,"EPHEMERIS_TYPE":0,"CLASSIFICATION_TYPE":"U","NORAD_CAT_ID":51040,"ELEMENT_SET_NO":999,"REV_AT_EPOCH":9139,"BSTAR":0.00059643,"MEAN_MOTION_DOT":0.00019222,"MEAN_MOTION_DDOT":0},{"OBJECT_NAME":"FLOCK 4X-31","OBJECT_ID":"2022-002BK","EPOCH":"2023-09-08T03:11:08.247840","MEAN_MOTION":15.30636607,"ECCENTRICITY":0.0004135,"INCLINATION":97.4281,"RA_OF_ASC_NODE":319.2914,"ARG_OF_PERICENTER":299.0372,"MEAN_ANOMALY":61.0454,"EPHEMERIS_TYPE":0,"CLASSIFICATION_TYPE":"U","NORAD_CAT_ID":51041,"ELEMENT_SET_NO":999,"REV_AT_EPOCH":9151,"BSTAR":0.00069749,"MEAN_MOTION_DOT":0.00020618,"MEAN_MOTION_DDOT":0},{"OBJECT_NAME":"FLOCK 4X-34","OBJECT_ID":"2022-002BL","EPOCH":"2023-09-07T14:54:48.846816","MEAN_MOTION":15.30452994,"ECCENTRICITY":0.00054,"INCLINATION":97.4348,"RA_OF_ASC_NODE":319.2157,"ARG_OF_PERICENTER":315.3911,"MEAN_ANOMALY":44.6895,"EPHEMERIS_TYPE":0,"CLASSIFICATION_TYPE":"U","NORAD_CAT_ID":51042,"ELEMENT_SET_NO":999,"REV_AT_EPOCH":9143,"BSTAR":0.00058016,"MEAN_MOTION_DOT":0.00017034,"MEAN_MOTION_DDOT":0},{"OBJECT_NAME":"FLOCK 4X-6","OBJECT_ID":"2022-002BM","EPOCH":"2023-09-08T03:02:47.445792","MEAN_MOTION":15.30547228,"ECCENTRICITY":0.0005032,"INCLINATION":97.4326,"RA_OF_ASC_NODE":319.6213,"ARG_OF_PERICENTER":307.8796,"MEAN_ANOMALY":52.199,"EPHEMERIS_TYPE":0,"CLASSIFICATION_TYPE":"U","NORAD_CAT_ID":51043,"ELEMENT_SET_NO":999,"REV_AT_EPOCH":9151,"BSTAR":0.00059004,"MEAN_MOTION_DOT":0.00017376,"MEAN_MOTION_DDOT":0},{"OBJECT_NAME":"IRIS-A","OBJECT_ID":"2022-002BN","EPOCH":"2023-09-07T03:42:43.813728","MEAN_MOTION":15.21035459,"ECCENTRICITY":0.0006545,"INCLINATION":97.4271,"RA_OF_ASC_NODE":314.4182,"ARG_OF_PERICENTER":320.4967,"MEAN_ANOMALY":39.579,"EPHEMERIS_TYPE":0,"CLASSIFICATION_TYPE":"U","NORAD_CAT_ID":51044,"ELEMENT_SET_NO":999,"REV_AT_EPOCH":9111,"BSTAR":0.00047534,"MEAN_MOTION_DOT":0.00010494,"MEAN_MOTION_DDOT":0},{"OBJECT_NAME":"FLOCK 4X-28","OBJECT_ID":"2022-002BP","EPOCH":"2023-09-07T10:38:29.244192","MEAN_MOTION":15.3413235,"ECCENTRICITY":0.0006447,"INCLINATION":97.4272,"RA_OF_ASC_NODE":319.1974,"ARG_OF_PERICENTER":270.7382,"MEAN_ANOMALY":89.3121,"EPHEMERIS_TYPE":0,"CLASSIFICATION_TYPE":"U","NORAD_CAT_ID":51045,"ELEMENT_SET_NO":999,"REV_AT_EPOCH":9144,"BSTAR":0.00067512,"MEAN_MOTION_DOT":0.00022274,"MEAN_MOTION_DDOT":0},{"OBJECT_NAME":"FLOCK 4X-19","OBJECT_ID":"2022-002BQ","EPOCH":"2023-09-08T02:38:47.733216","MEAN_MOTION":15.41145955,"ECCENTRICITY":0.0003573,"INCLINATION":97.4287,"RA_OF_ASC_NODE":321.6119,"ARG_OF_PERICENTER":273.638,"MEAN_ANOMALY":86.4458,"EPHEMERIS_TYPE":0,"CLASSIFICATION_TYPE":"U","NORAD_CAT_ID":51046,"ELEMENT_SET_NO":999,"REV_AT_EPOCH":9164,"BSTAR":0.00081174,"MEAN_MOTION_DOT":0.00033657,"MEAN_MOTION_DDOT":0},{"OBJECT_NAME":"FLOCK 4X-9","OBJECT_ID":"2022-002BR","EPOCH":"2023-09-07T14:41:56.251104","MEAN_MOTION":15.30520076,"ECCENTRICITY":0.0005764,"INCLINATION":97.4332,"RA_OF_ASC_NODE":319.1856,"ARG_OF_PERICENTER":313.9081,"MEAN_ANOMALY":46.1684,"EPHEMERIS_TYPE":0,"CLASSIFICATION_TYPE":"U","NORAD_CAT_ID":51047,"ELEMENT_SET_NO":999,"REV_AT_EPOCH":9143,"BSTAR":0.00057764,"MEAN_MOTION_DOT":0.00016996,"MEAN_MOTION_DDOT":0},{"OBJECT_NAME":"FLOCK 4X-35","OBJECT_ID":"2022-002BS","EPOCH":"2023-09-08T02:53:29.780448","MEAN_MOTION":15.30859745,"ECCENTRICITY":0.0004597,"INCLINATION":97.4261,"RA_OF_ASC_NODE":319.1942,"ARG_OF_PERICENTER":302.1368,"MEAN_ANOMALY":57.9426,"EPHEMERIS_TYPE":0,"CLASSIFICATION_TYPE":"U","NORAD_CAT_ID":51048,"ELEMENT_SET_NO":999,"REV_AT_EPOCH":9151,"BSTAR":0.00052815,"MEAN_MOTION_DOT":0.00015693,"MEAN_MOTION_DDOT":0},{"OBJECT_NAME":"FLOCK 4X-11","OBJECT_ID":"2022-002BT","EPOCH":"2023-09-07T15:14:14.022528","MEAN_MOTION":15.33171413,"ECCENTRICITY":0.0005448,"INCLINATION":97.4269,"RA_OF_ASC_NODE":319.1674,"ARG_OF_PERICENTER":283.0625,"MEAN_ANOMALY":77.0009,"EPHEMERIS_TYPE":0,"CLASSIFICATION_TYPE":"U","NORAD_CAT_ID":51049,"ELEMENT_SET_NO":999,"REV_AT_EPOCH":9146,"BSTAR":0.00058107,"MEAN_MOTION_DOT":0.00018575,"MEAN_MOTION_DDOT":0}]
