SICH-2-30 (SICH-2-1)    
1 51030U 22002AY  23251.11874851  .00010631  00000+0  49013-3 0  9993
2 51030  97.4312 315.5666 0007569 319.1603  40.9064 15.20416175 91251
SANOSAT-1               
1 51031U 22002AZ  23250.13990474  .00050857  00000+0  12859-2 0  9996
2 51031  97.4365 320.9272 0006950 284.6917  75.3558 15.39596783 91489
FLOCK 4X-17             
1 51035U 22002BD  23250.42641447  .00016222  00000+0  55413-3 0  9997
2 51035  97.4332 318.9213 0004794 314.8109  45.2741 15.30370124 91404
LEMUR-2-ROHOVITHSA      
1 51036U 22002BE  23251.11987922  .00029499  00000+0  10777-2 0  9999
2 51036  97.4326 317.9010 0005039 322.3993  37.6893 15.28045905 91394
FLOCK 4X-10             
1 51037U 22002BF  23251.12407836  .00018847  00000+0  64030-3 0  9999
2 51037  97.4344 319.7819 0006732 306.7887  53.2735 15.30505052 91500
MDASAT-1C               
1 51038U 22002BG  23251.11005838  .00012195  00000+0  54404-3 0  9999
2 51038  97.4363 316.2374 0007328 326.6334  33.4439 15.21514947 91278
FLOCK 4X-36             
1 51039U 22002BH  23251.13027868  .00018811  00000+0  64016-3 0  9990
2 51039  97.4333 319.7399 0005867 307.5166  52.5541 15.30455313 91512
FLOCK 4X-21             
1 51040U 22002BJ  23250.17375847  .00019222  00000+0  59643-3 0  9995
2 51040  97.4292 318.9709 0005968 290.8971  69.1632 15.33420627 91398
FLOCK 4X-31             
1 51041U 22002BK  23251.13273435  .00020618  00000+0  69749-3 0  9992
2 51041  97.4281 319.2914 0004135 299.0372  61.0454 15.30636607 91511
FLOCK 4X-34             
1 51042U 22002BL  23250.62139869  .00017034  00000+0  58016-3 0  9991
2 51042  97.4348 319.2157 0005400 315.3911  44.6895 15.30452994 91434
FLOCK 4X-6              
1 51043U 22002BM  23251.12693803  .00017376  00000+0  59004-3 0  9998
2 51043  97.4326 319.6213 0005032 307.8796  52.1990 15.30547228 91510
IRIS-A                  
1 51044U 22002BN  23250.15467377  .00010494  00000+0  47534-3 0  9995
2 51044  97.4271 314.4182 0006545 320.4967  39.5790 15.21035459 91110
FLOCK 4X-28             
1 51045U 22002BP  23250.44339403  .00022274  00000+0  67512-3 0  9993
2 51045  97.4272 319.1974 0006447 270.7382  89.3121 15.34132350 91441
FLOCK 4X-19             
1 51046U 22002BQ  23251.11027469  .00033657  00000+0  81174-3 0  9992
2 51046  97.4287 321.6119 0003573 273.6380  86.4458 15.41145955 91640
FLOCK 4X-9              
1 51047U 22002BR  23250.61245661  .00016996  00000+0  57764-3 0  9998
2 51047  97.4332 319.1856 0005764 313.9081  46.1684 15.30520076 91432
FLOCK 4X-35             
1 51048U 22002BS  23251.12048357  .00015693  00000+0  52815-3 0  9994
2 51048  97.4261 319.1942 0004597 302.1368  57.9426 15.30859745 91512
FLOCK 4X-11             
1 51049U 22002BT  23250.63488452  .00018575  00000+0  58107-3 0  9996
2 51049  97.4269 319.1674 0005448 283.0625  77.0009 15.33171413 91468
